CCSDS_OMM_VERS = 2.0
CREATION_DATE  = 
ORIGINATOR     = 

OBJECT_NAME    = STARLINK-35440
OBJECT_ID      = 2025-253AC
CENTER_NAME    = EARTH
REF_FRAME      = TEME
TIME_SYSTEM    = UTC
MEAN_ELEMENT_THEORY = SGP/SGP4

EPOCH          = 2025-12-03T08:00:01.999872
MEAN_MOTION    = 15.47843931
ECCENTRICITY   = .00013527
INCLINATION    = 43.0003
RA_OF_ASC_NODE = 39.6416
ARG_OF_PERICENTER = 267.4260
MEAN_ANOMALY   = 97.2641

EPHEMERIS_TYPE = 0
CLASSIFICATION_TYPE = U
NORAD_CAT_ID   = 66345
ELEMENT_SET_NO = 999
REV_AT_EPOCH   = 541
BSTAR          = -.44742388E-1
MEAN_MOTION_DOT = -.2112907E-1
MEAN_MOTION_DDOT = 0

CCSDS_OMM_VERS = 2.0
CREATION_DATE  = 
ORIGINATOR     = 

OBJECT_NAME    = STARLINK-35482
OBJECT_ID      = 2025-253AD
CENTER_NAME    = EARTH
REF_FRAME      = TEME
TIME_SYSTEM    = UTC
MEAN_ELEMENT_THEORY = SGP/SGP4

EPOCH          = 2025-12-03T04:52:02.600832
MEAN_MOTION    = 15.50595859
ECCENTRICITY   = .00012786
INCLINATION    = 42.9992
RA_OF_ASC_NODE = 40.3922
ARG_OF_PERICENTER = 264.1211
MEAN_ANOMALY   = 95.9503

EPHEMERIS_TYPE = 0
CLASSIFICATION_TYPE = U
NORAD_CAT_ID   = 66346
ELEMENT_SET_NO = 999
REV_AT_EPOCH   = 545
BSTAR          = .16158403E-2
MEAN_MOTION_DOT = .95675E-3
MEAN_MOTION_DDOT = 0

CCSDS_OMM_VERS = 2.0
CREATION_DATE  = 
ORIGINATOR     = 

OBJECT_NAME    = STARLINK-35438
OBJECT_ID      = 2025-253AE
CENTER_NAME    = EARTH
REF_FRAME      = TEME
TIME_SYSTEM    = UTC
MEAN_ELEMENT_THEORY = SGP/SGP4

EPOCH          = 2025-12-02T11:50:43.167552
MEAN_MOTION    = 15.50748022
ECCENTRICITY   = .00051686
INCLINATION    = 43.0001
RA_OF_ASC_NODE = 44.5284
ARG_OF_PERICENTER = 271.7306
MEAN_ANOMALY   = 88.2962

EPHEMERIS_TYPE = 0
CLASSIFICATION_TYPE = U
NORAD_CAT_ID   = 66347
ELEMENT_SET_NO = 999
REV_AT_EPOCH   = 534
BSTAR          = .23229767E-2
MEAN_MOTION_DOT = .139273E-2
MEAN_MOTION_DDOT = 0

CCSDS_OMM_VERS = 2.0
CREATION_DATE  = 
ORIGINATOR     = 

OBJECT_NAME    = STARLINK-35849
OBJECT_ID      = 2025-254A
CENTER_NAME    = EARTH
REF_FRAME      = TEME
TIME_SYSTEM    = UTC
MEAN_ELEMENT_THEORY = SGP/SGP4

EPOCH          = 2025-12-03T08:00:01.999872
MEAN_MOTION    = 15.63790696
ECCENTRICITY   = .00014155
INCLINATION    = 53.1596
RA_OF_ASC_NODE = 321.7514
ARG_OF_PERICENTER = 82.0060
MEAN_ANOMALY   = 106.5113

EPHEMERIS_TYPE = 0
CLASSIFICATION_TYPE = U
NORAD_CAT_ID   = 66348
ELEMENT_SET_NO = 999
REV_AT_EPOCH   = 541
BSTAR          = -.24028968E-1
MEAN_MOTION_DOT = -.2013647E-1
MEAN_MOTION_DDOT = 0

CCSDS_OMM_VERS = 2.0
CREATION_DATE  = 
ORIGINATOR     = 

OBJECT_NAME    = STARLINK-35848
OBJECT_ID      = 2025-254B
CENTER_NAME    = EARTH
REF_FRAME      = TEME
TIME_SYSTEM    = UTC
MEAN_ELEMENT_THEORY = SGP/SGP4

EPOCH          = 2025-12-03T08:00:01.999872
MEAN_MOTION    = 15.63784282
ECCENTRICITY   = .00014596
INCLINATION    = 53.1596
RA_OF_ASC_NODE = 321.7469
ARG_OF_PERICENTER = 83.7428
MEAN_ANOMALY   = 106.6957

EPHEMERIS_TYPE = 0
CLASSIFICATION_TYPE = U
NORAD_CAT_ID   = 66349
ELEMENT_SET_NO = 999
REV_AT_EPOCH   = 541
BSTAR          = -.23939526E-1
MEAN_MOTION_DOT = -.2006657E-1
MEAN_MOTION_DDOT = 0

CCSDS_OMM_VERS = 2.0
CREATION_DATE  = 
ORIGINATOR     = 

OBJECT_NAME    = STARLINK-35829
OBJECT_ID      = 2025-254C
CENTER_NAME    = EARTH
REF_FRAME      = TEME
TIME_SYSTEM    = UTC
MEAN_ELEMENT_THEORY = SGP/SGP4

EPOCH          = 2025-12-03T08:00:01.999872
MEAN_MOTION    = 15.63788835
ECCENTRICITY   = .00015177
INCLINATION    = 53.1599
RA_OF_ASC_NODE = 321.7429
ARG_OF_PERICENTER = 84.0447
MEAN_ANOMALY   = 108.3064

EPHEMERIS_TYPE = 0
CLASSIFICATION_TYPE = U
NORAD_CAT_ID   = 66350
ELEMENT_SET_NO = 999
REV_AT_EPOCH   = 541
BSTAR          = -.23993973E-1
MEAN_MOTION_DOT = -.2011024E-1
MEAN_MOTION_DDOT = 0

CCSDS_OMM_VERS = 2.0
CREATION_DATE  = 
ORIGINATOR     = 

OBJECT_NAME    = STARLINK-35828
OBJECT_ID      = 2025-254D
CENTER_NAME    = EARTH
REF_FRAME      = TEME
TIME_SYSTEM    = UTC
MEAN_ELEMENT_THEORY = SGP/SGP4

EPOCH          = 2025-12-03T08:00:01.999872
MEAN_MOTION    = 15.63768158
ECCENTRICITY   = .00014011
INCLINATION    = 53.1598
RA_OF_ASC_NODE = 321.7388
ARG_OF_PERICENTER = 83.3672
MEAN_ANOMALY   = 110.9195

EPHEMERIS_TYPE = 0
CLASSIFICATION_TYPE = U
NORAD_CAT_ID   = 66351
ELEMENT_SET_NO = 999
REV_AT_EPOCH   = 538
BSTAR          = -.23756332E-1
MEAN_MOTION_DOT = -.1992003E-1
MEAN_MOTION_DDOT = 0

CCSDS_OMM_VERS = 2.0
CREATION_DATE  = 
ORIGINATOR     = 

OBJECT_NAME    = STARLINK-35850
OBJECT_ID      = 2025-254E
CENTER_NAME    = EARTH
REF_FRAME      = TEME
TIME_SYSTEM    = UTC
MEAN_ELEMENT_THEORY = SGP/SGP4

EPOCH          = 2025-12-03T08:00:01.999872
MEAN_MOTION    = 15.63788943
ECCENTRICITY   = .00014511
INCLINATION    = 53.1601
RA_OF_ASC_NODE = 321.7345
ARG_OF_PERICENTER = 85.9910
MEAN_ANOMALY   = 110.1949

EPHEMERIS_TYPE = 0
CLASSIFICATION_TYPE = U
NORAD_CAT_ID   = 66352
ELEMENT_SET_NO = 999
REV_AT_EPOCH   = 536
BSTAR          = -.23998896E-1
MEAN_MOTION_DOT = -.2011341E-1
MEAN_MOTION_DDOT = 0

CCSDS_OMM_VERS = 2.0
CREATION_DATE  = 
ORIGINATOR     = 

OBJECT_NAME    = STARLINK-35869
OBJECT_ID      = 2025-254F
CENTER_NAME    = EARTH
REF_FRAME      = TEME
TIME_SYSTEM    = UTC
MEAN_ELEMENT_THEORY = SGP/SGP4

EPOCH          = 2025-12-03T08:00:01.999872
MEAN_MOTION    = 15.63788588
ECCENTRICITY   = .00014328
INCLINATION    = 53.1600
RA_OF_ASC_NODE = 321.7303
ARG_OF_PERICENTER = 83.7192
MEAN_ANOMALY   = 114.3850

EPHEMERIS_TYPE = 0
CLASSIFICATION_TYPE = U
NORAD_CAT_ID   = 66353
ELEMENT_SET_NO = 999
REV_AT_EPOCH   = 541
BSTAR          = -.24012591E-1
MEAN_MOTION_DOT = -.2012308E-1
MEAN_MOTION_DDOT = 0

CCSDS_OMM_VERS = 2.0
CREATION_DATE  = 
ORIGINATOR     = 

OBJECT_NAME    = STARLINK-35895
OBJECT_ID      = 2025-254G
CENTER_NAME    = EARTH
REF_FRAME      = TEME
TIME_SYSTEM    = UTC
MEAN_ELEMENT_THEORY = SGP/SGP4

EPOCH          = 2025-12-03T08:00:01.999872
MEAN_MOTION    = 15.49285556
ECCENTRICITY   = .00015198
INCLINATION    = 53.1593
RA_OF_ASC_NODE = 322.0535
ARG_OF_PERICENTER = 95.1842
MEAN_ANOMALY   = 302.7032

EPHEMERIS_TYPE = 0
CLASSIFICATION_TYPE = U
NORAD_CAT_ID   = 66354
ELEMENT_SET_NO = 999
REV_AT_EPOCH   = 541
BSTAR          = -.11769668E-3
MEAN_MOTION_DOT = -.6983E-4
MEAN_MOTION_DDOT = 0

CCSDS_OMM_VERS = 2.0
CREATION_DATE  = 
ORIGINATOR     = 

OBJECT_NAME    = STARLINK-35861
OBJECT_ID      = 2025-254H
CENTER_NAME    = EARTH
REF_FRAME      = TEME
TIME_SYSTEM    = UTC
MEAN_ELEMENT_THEORY = SGP/SGP4

EPOCH          = 2025-12-03T08:00:01.999872
MEAN_MOTION    = 15.63787701
ECCENTRICITY   = .00014001
INCLINATION    = 53.1598
RA_OF_ASC_NODE = 321.7223
ARG_OF_PERICENTER = 81.8318
MEAN_ANOMALY   = 120.1052

EPHEMERIS_TYPE = 0
CLASSIFICATION_TYPE = U
NORAD_CAT_ID   = 66355
ELEMENT_SET_NO = 999
REV_AT_EPOCH   = 541
BSTAR          = -.23991094E-1
MEAN_MOTION_DOT = -.2010641E-1
MEAN_MOTION_DDOT = 0

CCSDS_OMM_VERS = 2.0
CREATION_DATE  = 
ORIGINATOR     = 

OBJECT_NAME    = STARLINK-35851
OBJECT_ID      = 2025-254J
CENTER_NAME    = EARTH
REF_FRAME      = TEME
TIME_SYSTEM    = UTC
MEAN_ELEMENT_THEORY = SGP/SGP4

EPOCH          = 2025-12-03T08:00:01.999872
MEAN_MOTION    = 15.63786525
ECCENTRICITY   = .00014738
INCLINATION    = 53.1597
RA_OF_ASC_NODE = 321.7178
ARG_OF_PERICENTER = 85.5431
MEAN_ANOMALY   = 118.3118

EPHEMERIS_TYPE = 0
CLASSIFICATION_TYPE = U
NORAD_CAT_ID   = 66356
ELEMENT_SET_NO = 999
REV_AT_EPOCH   = 541
BSTAR          = -.23977073E-1
MEAN_MOTION_DOT = -.2009585E-1
MEAN_MOTION_DDOT = 0

CCSDS_OMM_VERS = 2.0
CREATION_DATE  = 
ORIGINATOR     = 

OBJECT_NAME    = STARLINK-35817
OBJECT_ID      = 2025-254K
CENTER_NAME    = EARTH
REF_FRAME      = TEME
TIME_SYSTEM    = UTC
MEAN_ELEMENT_THEORY = SGP/SGP4

EPOCH          = 2025-12-03T08:00:01.999872
MEAN_MOTION    = 15.63785186
ECCENTRICITY   = .00014548
INCLINATION    = 53.1596
RA_OF_ASC_NODE = 321.7136
ARG_OF_PERICENTER = 87.8936
MEAN_ANOMALY   = 117.8787

EPHEMERIS_TYPE = 0
CLASSIFICATION_TYPE = U
NORAD_CAT_ID   = 66357
ELEMENT_SET_NO = 999
REV_AT_EPOCH   = 541
BSTAR          = -.23949097E-1
MEAN_MOTION_DOT = -.200742E-1
MEAN_MOTION_DDOT = 0

CCSDS_OMM_VERS = 2.0
CREATION_DATE  = 
ORIGINATOR     = 

OBJECT_NAME    = STARLINK-35807
OBJECT_ID      = 2025-254L
CENTER_NAME    = EARTH
REF_FRAME      = TEME
TIME_SYSTEM    = UTC
MEAN_ELEMENT_THEORY = SGP/SGP4

EPOCH          = 2025-12-03T08:00:01.999872
MEAN_MOTION    = 15.63787040
ECCENTRICITY   = .00013524
INCLINATION    = 53.1598
RA_OF_ASC_NODE = 321.7092
ARG_OF_PERICENTER = 87.1324
MEAN_ANOMALY   = 120.5566

EPHEMERIS_TYPE = 0
CLASSIFICATION_TYPE = U
NORAD_CAT_ID   = 66358
ELEMENT_SET_NO = 999
REV_AT_EPOCH   = 541
BSTAR          = -.23984287E-1
MEAN_MOTION_DOT = -.2010058E-1
MEAN_MOTION_DDOT = 0

CCSDS_OMM_VERS = 2.0
CREATION_DATE  = 
ORIGINATOR     = 

OBJECT_NAME    = STARLINK-35805
OBJECT_ID      = 2025-254M
CENTER_NAME    = EARTH
REF_FRAME      = TEME
TIME_SYSTEM    = UTC
MEAN_ELEMENT_THEORY = SGP/SGP4

EPOCH          = 2025-12-03T08:00:01.999872
MEAN_MOTION    = 15.63788893
ECCENTRICITY   = .00014624
INCLINATION    = 53.1597
RA_OF_ASC_NODE = 321.7056
ARG_OF_PERICENTER = 86.7732
MEAN_ANOMALY   = 122.8310

EPHEMERIS_TYPE = 0
CLASSIFICATION_TYPE = U
NORAD_CAT_ID   = 66359
ELEMENT_SET_NO = 999
REV_AT_EPOCH   = 538
BSTAR          = -.24005275E-1
MEAN_MOTION_DOT = -.2011816E-1
MEAN_MOTION_DDOT = 0

